STARLINK-4261           
1 52868U 22062AQ  26068.26159278 -.00000918  00000+0 -39586-4 0  9997
2 52868  53.2186  26.0712 0001356  90.3405 269.7743 15.08834921205860
LEMUR-2-KREMPEL-BRO2    
1 63353U 25061C   26068.86379735  .00007837  00000+0  44347-3 0  9993
2 63353  97.5616  45.5365 0017925 236.8576 123.0936 15.13192951 52586
